start=new Date('2022-03-30T00:00:00.000Z').valueOf();
sats=[{"MEAN_MOTION_DOT":"0.00042897","EPOCH":"2022-03-29T22:00:00.999936","TLE_LINE1":"1 48582U 21041AF  22088.91667824  .00042897  00000-0  28826-2 0  9996","MEAN_MOTION_DDOT":"0.0000000000000","BSTAR":"0.00288260000000","OBJECT_ID":"2021-041AF","REV_AT_EPOCH":"361","REF_FRAME":"TEME","PERIAPSIS":"546.086","SEMIMAJOR_AXIS":"6925.402","ARG_OF_PERICENTER":"64.3825","TLE_LINE2":"2 48582  53.0530  84.4891 0001706  64.3825 102.2305 15.06382412  3616","ELEMENT_SET_NO":"999","GP_ID":"200019642","RA_OF_ASC_NODE":"84.4891","SITE":"AFETR","RCS_SIZE":"LARGE","CENTER_NAME":"EARTH","CLASSIFICATION_TYPE":"U","PERIOD":"95.593","MEAN_MOTION":"15.06382412","LAUNCH_DATE":"2021-05-15","DECAY_DATE":null,"ECCENTRICITY":"0.00017060","INCLINATION":"53.0530","OBJECT_NAME":"STARLINK-2236","OBJECT_TYPE":"PAYLOAD","FILE":"3379484","MEAN_ELEMENT_THEORY":"SGP4","MEAN_ANOMALY":"102.2305","TIME_SYSTEM":"UTC","NORAD_CAT_ID":"48582","APOAPSIS":"548.449","EPHEMERIS_TYPE":"0","COUNTRY_CODE":"US"},{"MEAN_ANOMALY":"295.1341","FILE":"3379484","MEAN_ELEMENT_THEORY":"SGP4","OBJECT_TYPE":"PAYLOAD","OBJECT_NAME":"STARLINK-2237","COUNTRY_CODE":"US","EPHEMERIS_TYPE":"0","TIME_SYSTEM":"UTC","NORAD_CAT_ID":"48583","APOAPSIS":"548.394","CENTER_NAME":"EARTH","CLASSIFICATION_TYPE":"U","RCS_SIZE":"LARGE","SITE":"AFETR","GP_ID":"200020394","RA_OF_ASC_NODE":"129.8492","DECAY_DATE":null,"ECCENTRICITY":"0.00016620","INCLINATION":"53.0521","LAUNCH_DATE":"2021-05-15","PERIOD":"95.593","MEAN_MOTION":"15.06390420","PERIAPSIS":"546.092","REV_AT_EPOCH":"4789","REF_FRAME":"TEME","OBJECT_ID":"2021-041AG","TLE_LINE2":"2 48583  53.0521 129.8492 0001662  64.9820 295.1341 15.06390420 47898","ELEMENT_SET_NO":"999","ARG_OF_PERICENTER":"64.9820","SEMIMAJOR_AXIS":"6925.378","MEAN_MOTION_DOT":"-0.00002505","BSTAR":"-0.00014933000000","MEAN_MOTION_DDOT":"0.0000000000000","TLE_LINE1":"1 48583U 21041AG  22088.84040977 -.00002505  00000-0 -14933-3 0  9992","EPOCH":"2022-03-29T20:10:11.404128"},{"MEAN_MOTION":"15.06387487","PERIOD":"95.593","ECCENTRICITY":"0.00015580","INCLINATION":"53.0531","DECAY_DATE":null,"LAUNCH_DATE":"2021-05-15","RA_OF_ASC_NODE":"129.9640","GP_ID":"200020642","CLASSIFICATION_TYPE":"U","CENTER_NAME":"EARTH","SITE":"AFETR","RCS_SIZE":"LARGE","NORAD_CAT_ID":"48584","APOAPSIS":"548.331","TIME_SYSTEM":"UTC","COUNTRY_CODE":"US","EPHEMERIS_TYPE":"0","OBJECT_TYPE":"PAYLOAD","OBJECT_NAME":"STARLINK-2238","MEAN_ANOMALY":"305.7143","MEAN_ELEMENT_THEORY":"SGP4","FILE":"3379484","TLE_LINE1":"1 48584U 21041AH  22088.81459755  .00001814  00000-0  14070-3 0  9990","EPOCH":"2022-03-29T19:33:01.228320","MEAN_MOTION_DDOT":"0.0000000000000","BSTAR":"0.00014070000000","MEAN_MOTION_DOT":"0.00001814","SEMIMAJOR_AXIS":"6925.387","ELEMENT_SET_NO":"999","TLE_LINE2":"2 48584  53.0531 129.9640 0001558  54.3991 305.7143 15.06387487 47888","ARG_OF_PERICENTER":"54.3991","OBJECT_ID":"2021-041AH","PERIAPSIS":"546.173","REF_FRAME":"TEME","REV_AT_EPOCH":"4788"},{"SEMIMAJOR_AXIS":"6925.370","ARG_OF_PERICENTER":"55.1952","ELEMENT_SET_NO":"999","TLE_LINE2":"2 48585  53.0545 129.9231 0001594  55.1952 304.9187 15.06392937 48286","OBJECT_ID":"2021-041AJ","REF_FRAME":"TEME","REV_AT_EPOCH":"4828","PERIAPSIS":"546.131","EPOCH":"2022-03-29T19:48:57.043008","TLE_LINE1":"1 48585U 21041AJ  22088.82566022 -.00000992  00000-0 -47691-4 0  9992","MEAN_MOTION_DDOT":"0.0000000000000","BSTAR":"-0.00004769100000","MEAN_MOTION_DOT":"-0.00000992","APOAPSIS":"548.339","NORAD_CAT_ID":"48585","TIME_SYSTEM":"UTC","EPHEMERIS_TYPE":"0","COUNTRY_CODE":"US","OBJECT_NAME":"STARLINK-2240","OBJECT_TYPE":"PAYLOAD","MEAN_ELEMENT_THEORY":"SGP4","FILE":"3379455","MEAN_ANOMALY":"304.9187","MEAN_MOTION":"15.06392937","PERIOD":"95.593","LAUNCH_DATE":"2021-05-15","ECCENTRICITY":"0.00015940","INCLINATION":"53.0545","DECAY_DATE":null,"RA_OF_ASC_NODE":"129.9231","GP_ID":"199997279","RCS_SIZE":"LARGE","SITE":"AFETR","CLASSIFICATION_TYPE":"U","CENTER_NAME":"EARTH"},{"MEAN_MOTION_DOT":"-0.00002309","TLE_LINE1":"1 48586U 21041AK  22088.88463608 -.00002309  00000-0 -13618-3 0  9990","EPOCH":"2022-03-29T21:13:52.557312","MEAN_MOTION_DDOT":"0.0000000000000","BSTAR":"-0.00013618000000","OBJECT_ID":"2021-041AK","PERIAPSIS":"546.046","REV_AT_EPOCH":"4789","REF_FRAME":"TEME","SEMIMAJOR_AXIS":"6925.385","TLE_LINE2":"2 48586  53.0543 129.6515 0001739  56.2772 303.8382 15.06388147 47899","ELEMENT_SET_NO":"999","ARG_OF_PERICENTER":"56.2772","GP_ID":"200019143","RA_OF_ASC_NODE":"129.6515","CENTER_NAME":"EARTH","CLASSIFICATION_TYPE":"U","SITE":"AFETR","RCS_SIZE":"LARGE","PERIOD":"95.593","MEAN_MOTION":"15.06388147","DECAY_DATE":null,"ECCENTRICITY":"0.00017390","INCLINATION":"53.0543","LAUNCH_DATE":"2021-05-15","OBJECT_TYPE":"PAYLOAD","OBJECT_NAME":"STARLINK-2241","MEAN_ANOMALY":"303.8382","FILE":"3379484","MEAN_ELEMENT_THEORY":"SGP4","TIME_SYSTEM":"UTC","NORAD_CAT_ID":"48586","APOAPSIS":"548.454","COUNTRY_CODE":"US","EPHEMERIS_TYPE":"0"},{"SITE":"AFETR","RCS_SIZE":"LARGE","CLASSIFICATION_TYPE":"U","CENTER_NAME":"EARTH","GP_ID":"200019895","RA_OF_ASC_NODE":"129.9019","LAUNCH_DATE":"2021-05-15","DECAY_DATE":null,"INCLINATION":"53.0537","ECCENTRICITY":"0.00013860","PERIOD":"95.592","MEAN_MOTION":"15.06394938","FILE":"3379484","MEAN_ELEMENT_THEORY":"SGP4","MEAN_ANOMALY":"289.0783","OBJECT_NAME":"STARLINK-2242","OBJECT_TYPE":"PAYLOAD","EPHEMERIS_TYPE":"0","COUNTRY_CODE":"US","TIME_SYSTEM":"UTC","NORAD_CAT_ID":"48587","APOAPSIS":"548.189","MEAN_MOTION_DOT":"-0.00001470","BSTAR":"-0.00007983500000","MEAN_MOTION_DDOT":"0.0000000000000","EPOCH":"2022-03-29T19:43:38.871552","TLE_LINE1":"1 48587U 21041AL  22088.82197768 -.00001470  00000-0 -79835-4 0  9998","REV_AT_EPOCH":"4828","REF_FRAME":"TEME","PERIAPSIS":"546.269","OBJECT_ID":"2021-041AL","ARG_OF_PERICENTER":"71.0356","TLE_LINE2":"2 48587  53.0537 129.9019 0001386  71.0356 289.0783 15.06394938 48285","ELEMENT_SET_NO":"999","SEMIMAJOR_AXIS":"6925.364"},{"MEAN_MOTION_DDOT":"0.0000000000000","BSTAR":"-0.00010395000000","EPOCH":"2022-03-29T19:13:08.435712","TLE_LINE1":"1 48588U 21041AM  22088.80079208 -.00001829  00000-0 -10395-3 0  9998","MEAN_MOTION_DOT":"-0.00001829","ARG_OF_PERICENTER":"66.6237","TLE_LINE2":"2 48588  53.0538 120.0228 0001559  66.6237 293.4916 15.06386750 48472","ELEMENT_SET_NO":"999","SEMIMAJOR_AXIS":"6925.389","REV_AT_EPOCH":"4847","REF_FRAME":"TEME","PERIAPSIS":"546.174","OBJECT_ID":"2021-041AM","LAUNCH_DATE":"2021-05-15","DECAY_DATE":null,"INCLINATION":"53.0538","ECCENTRICITY":"0.00015590","PERIOD":"95.593","MEAN_MOTION":"15.06386750","SITE":"AFETR","RCS_SIZE":"LARGE","CENTER_NAME":"EARTH","CLASSIFICATION_TYPE":"U","GP_ID":"200020143","RA_OF_ASC_NODE":"120.0228","EPHEMERIS_TYPE":"0","COUNTRY_CODE":"US","TIME_SYSTEM":"UTC","APOAPSIS":"548.334","NORAD_CAT_ID":"48588","FILE":"3379484","MEAN_ELEMENT_THEORY":"SGP4","MEAN_ANOMALY":"293.4916","OBJECT_NAME":"STARLINK-2244","OBJECT_TYPE":"PAYLOAD"},{"PERIOD":"95.592","MEAN_MOTION":"15.06403829","LAUNCH_DATE":"2021-05-15","DECAY_DATE":null,"INCLINATION":"53.0541","ECCENTRICITY":"0.00014750","GP_ID":"200019393","RA_OF_ASC_NODE":"120.0386","RCS_SIZE":"LARGE","SITE":"AFETR","CENTER_NAME":"EARTH","CLASSIFICATION_TYPE":"U","TIME_SYSTEM":"UTC","APOAPSIS":"548.223","NORAD_CAT_ID":"48589","EPHEMERIS_TYPE":"0","COUNTRY_CODE":"US","OBJECT_NAME":"STARLINK-2245","OBJECT_TYPE":"PAYLOAD","FILE":"3379484","MEAN_ELEMENT_THEORY":"SGP4","MEAN_ANOMALY":"295.0045","EPOCH":"2022-03-29T19:07:49.070208","TLE_LINE1":"1 48589U 21041AN  22088.79709572  .00001051  00000-0  89445-4 0  9999","MEAN_MOTION_DDOT":"0.0000000000000","BSTAR":"0.00008944500000","MEAN_MOTION_DOT":"0.00001051","SEMIMAJOR_AXIS":"6925.337","ARG_OF_PERICENTER":"65.1097","TLE_LINE2":"2 48589  53.0541 120.0386 0001475  65.1097 295.0045 15.06403829 48475","ELEMENT_SET_NO":"999","OBJECT_ID":"2021-041AN","REV_AT_EPOCH":"4847","REF_FRAME":"TEME","PERIAPSIS":"546.180"},{"TLE_LINE1":"1 48590U 21041AP  22088.55315369 -.00000967  11084-4  75097-5 0  9995","EPOCH":"2022-03-29T13:16:32.478816","BSTAR":"0.00000750970000","MEAN_MOTION_DDOT":"0.0000110840000","MEAN_MOTION_DOT":"-0.00000967","SEMIMAJOR_AXIS":"6675.189","ELEMENT_SET_NO":"999","TLE_LINE2":"2 48590  53.0518 111.0691 0002746   0.8858 359.2172 15.91869436 48415","ARG_OF_PERICENTER":"0.8858","OBJECT_ID":"2021-041AP","PERIAPSIS":"295.221","REF_FRAME":"TEME","REV_AT_EPOCH":"4841","MEAN_MOTION":"15.91869436","PERIOD":"90.460","INCLINATION":"53.0518","ECCENTRICITY":"0.00027460","DECAY_DATE":null,"LAUNCH_DATE":"2021-05-15","RA_OF_ASC_NODE":"111.0691","GP_ID":"199994810","CLASSIFICATION_TYPE":"U","CENTER_NAME":"EARTH","RCS_SIZE":"LARGE","SITE":"AFETR","NORAD_CAT_ID":"48590","APOAPSIS":"298.887","TIME_SYSTEM":"UTC","COUNTRY_CODE":"US","EPHEMERIS_TYPE":"0","OBJECT_TYPE":"PAYLOAD","OBJECT_NAME":"STARLINK-2246","MEAN_ANOMALY":"359.2172","MEAN_ELEMENT_THEORY":"SGP4","FILE":"3379356"},{"APOAPSIS":"548.344","NORAD_CAT_ID":"48591","TIME_SYSTEM":"UTC","EPHEMERIS_TYPE":"0","COUNTRY_CODE":"US","OBJECT_NAME":"STARLINK-2248","OBJECT_TYPE":"PAYLOAD","MEAN_ELEMENT_THEORY":"SGP4","FILE":"3379484","MEAN_ANOMALY":"300.6315","MEAN_MOTION":"15.06399094","PERIOD":"95.592","LAUNCH_DATE":"2021-05-15","INCLINATION":"53.0585","ECCENTRICITY":"0.00016280","DECAY_DATE":null,"RA_OF_ASC_NODE":"120.0831","GP_ID":"200020395","RCS_SIZE":"LARGE","SITE":"AFETR","CLASSIFICATION_TYPE":"U","CENTER_NAME":"EARTH","SEMIMAJOR_AXIS":"6925.351","ARG_OF_PERICENTER":"59.4834","ELEMENT_SET_NO":"999","TLE_LINE2":"2 48591  53.0585 120.0831 0001628  59.4834 300.6315 15.06399094 48927","OBJECT_ID":"2021-041AQ","REF_FRAME":"TEME","REV_AT_EPOCH":"4892","PERIAPSIS":"546.089","EPOCH":"2022-03-29T18:45:13.486176","TLE_LINE1":"1 48591U 21041AQ  22088.78140609  .00000159  00000-0  29555-4 0  9995","BSTAR":"0.00002955500000","MEAN_MOTION_DDOT":"0.0000000000000","MEAN_MOTION_DOT":"0.00000159"}];
